ARIANE 40 R/B           
1 20443U 90005H   25328.46202649  .00000364  00000+0  12949-3 0  9990
2 20443  98.3268  27.1546 0010714 155.8193 204.3501 14.39778100877660
DELTA 2 R/B(1)          
1 20453U 90008B   25327.54941172  .00033120  00000+0  56016-3 0  9992
2 20453  35.6044 144.2726 0115012   2.9098 357.2283 15.43387170909661
COSMOS 2058             
1 20465U 90010A   25328.27364433  .00003993  00000+0  24230-3 0  9996
2 20465  82.4628 151.1974 0009557 347.4838  12.6153 15.10237333926328
SL-14 R/B               
1 20466U 90010B   25328.19622370  .00000496  00000+0  57386-4 0  9999
2 20466  82.5033   6.4630 0018329 288.9984  70.9245 14.83446418912845
SL-14 R/B               
1 20511U 90018B   25328.38271428  .00000510  00000+0  61136-4 0  9998
2 20511  82.5198 321.5246 0017980  79.5334 280.7905 14.82018974906980
HST                     
1 20580U 90037B   25328.24132975  .00008056  00000+0  28128-3 0  9999
2 20580  28.4700  38.3591 0001914  46.3474 313.7280 15.27680812757160
SL-16 R/B               
1 20625U 90046B   25327.94168158  .00000160  00000+0  10743-3 0  9999
2 20625  70.9960 159.9989 0012237 108.2860 251.9596 14.14990911833435
COSMOS 2084             
1 20663U 90055A   25328.36174584  .00002828  00000+0  21086-3 0  9993
2 20663  62.7911 334.6059 0034601 172.4284 187.7347 15.04852501920466
SL-6 R/B(2)             
1 20666U 90055D   25328.20516412  .00002810  00000+0  22235-3 0  9997
2 20666  62.7833 252.3858 0011214 294.0393  65.9532 15.02950380922335
SL-8 R/B                
1 20775U 90078B   25328.47577634  .00024843  00000+0  76873-3 0  9992
2 20775  82.9052 345.6440 0377855   7.1727 353.4679 14.84828246793669
SL-8 R/B                
1 21088U 91006B   25328.31198420  .00000118  00000+0  10347-3 0  9990
2 21088  82.9428 248.4188 0022003 334.1272 141.2759 13.77486780749569
OKEAN-3                 
1 21397U 91039A   25328.38641705  .00004374  00000+0  31464-3 0  9996
2 21397  82.5172  78.8073 0013985 333.9150  26.1370 15.03935924849205
