CCSDS_OMM_VERS = 2.0
CREATION_DATE  = 
ORIGINATOR     = 

OBJECT_NAME    = ARIANE 40 R/B
OBJECT_ID      = 1990-005H
CENTER_NAME    = EARTH
REF_FRAME      = TEME
TIME_SYSTEM    = UTC
MEAN_ELEMENT_THEORY = SGP/SGP4

EPOCH          = 2025-11-24T11:05:19.088736
MEAN_MOTION    = 14.39778100
ECCENTRICITY   = .0010714
INCLINATION    = 98.3268
RA_OF_ASC_NODE = 27.1546
ARG_OF_PERICENTER = 155.8193
MEAN_ANOMALY   = 204.3501

EPHEMERIS_TYPE = 0
CLASSIFICATION_TYPE = U
NORAD_CAT_ID   = 20443
ELEMENT_SET_NO = 999
REV_AT_EPOCH   = 87766
BSTAR          = .12949E-3
MEAN_MOTION_DOT = .364E-5
MEAN_MOTION_DDOT = 0

CCSDS_OMM_VERS = 2.0
CREATION_DATE  = 
ORIGINATOR     = 

OBJECT_NAME    = DELTA 2 R/B(1)
OBJECT_ID      = 1990-008B
CENTER_NAME    = EARTH
REF_FRAME      = TEME
TIME_SYSTEM    = UTC
MEAN_ELEMENT_THEORY = SGP/SGP4

EPOCH          = 2025-11-23T13:11:09.171744
MEAN_MOTION    = 15.43387170
ECCENTRICITY   = .0115013
INCLINATION    = 35.6044
RA_OF_ASC_NODE = 144.2726
ARG_OF_PERICENTER = 2.9098
MEAN_ANOMALY   = 357.2283

EPHEMERIS_TYPE = 0
CLASSIFICATION_TYPE = U
NORAD_CAT_ID   = 20453
ELEMENT_SET_NO = 999
REV_AT_EPOCH   = 90966
BSTAR          = .56016E-3
MEAN_MOTION_DOT = .3312E-3
MEAN_MOTION_DDOT = 0

CCSDS_OMM_VERS = 2.0
CREATION_DATE  = 
ORIGINATOR     = 

OBJECT_NAME    = COSMOS 2058
OBJECT_ID      = 1990-010A
CENTER_NAME    = EARTH
REF_FRAME      = TEME
TIME_SYSTEM    = UTC
MEAN_ELEMENT_THEORY = SGP/SGP4

EPOCH          = 2025-11-24T06:34:02.870112
MEAN_MOTION    = 15.10237333
ECCENTRICITY   = .0009557
INCLINATION    = 82.4628
RA_OF_ASC_NODE = 151.1974
ARG_OF_PERICENTER = 347.4838
MEAN_ANOMALY   = 12.6153

EPHEMERIS_TYPE = 0
CLASSIFICATION_TYPE = U
NORAD_CAT_ID   = 20465
ELEMENT_SET_NO = 999
REV_AT_EPOCH   = 92632
BSTAR          = .2423E-3
MEAN_MOTION_DOT = .3993E-4
MEAN_MOTION_DDOT = 0

CCSDS_OMM_VERS = 2.0
CREATION_DATE  = 
ORIGINATOR     = 

OBJECT_NAME    = SL-14 R/B
OBJECT_ID      = 1990-010B
CENTER_NAME    = EARTH
REF_FRAME      = TEME
TIME_SYSTEM    = UTC
MEAN_ELEMENT_THEORY = SGP/SGP4

EPOCH          = 2025-11-24T04:42:33.726816
MEAN_MOTION    = 14.83446418
ECCENTRICITY   = .001833
INCLINATION    = 82.5033
RA_OF_ASC_NODE = 6.4630
ARG_OF_PERICENTER = 288.9984
MEAN_ANOMALY   = 70.9245

EPHEMERIS_TYPE = 0
CLASSIFICATION_TYPE = U
NORAD_CAT_ID   = 20466
ELEMENT_SET_NO = 999
REV_AT_EPOCH   = 91284
BSTAR          = .57386E-4
MEAN_MOTION_DOT = .496E-5
MEAN_MOTION_DDOT = 0

CCSDS_OMM_VERS = 2.0
CREATION_DATE  = 
ORIGINATOR     = 

OBJECT_NAME    = SL-14 R/B
OBJECT_ID      = 1990-018B
CENTER_NAME    = EARTH
REF_FRAME      = TEME
TIME_SYSTEM    = UTC
MEAN_ELEMENT_THEORY = SGP/SGP4

EPOCH          = 2025-11-24T09:11:06.513792
MEAN_MOTION    = 14.82018974
ECCENTRICITY   = .001798
INCLINATION    = 82.5198
RA_OF_ASC_NODE = 321.5246
ARG_OF_PERICENTER = 79.5334
MEAN_ANOMALY   = 280.7905

EPHEMERIS_TYPE = 0
CLASSIFICATION_TYPE = U
NORAD_CAT_ID   = 20511
ELEMENT_SET_NO = 999
REV_AT_EPOCH   = 90698
BSTAR          = .61136E-4
MEAN_MOTION_DOT = .51E-5
MEAN_MOTION_DDOT = 0

CCSDS_OMM_VERS = 2.0
CREATION_DATE  = 
ORIGINATOR     = 

OBJECT_NAME    = HST
OBJECT_ID      = 1990-037B
CENTER_NAME    = EARTH
REF_FRAME      = TEME
TIME_SYSTEM    = UTC
MEAN_ELEMENT_THEORY = SGP/SGP4

EPOCH          = 2025-11-24T05:47:30.890400
MEAN_MOTION    = 15.27680812
ECCENTRICITY   = .0001915
INCLINATION    = 28.4700
RA_OF_ASC_NODE = 38.3591
ARG_OF_PERICENTER = 46.3474
MEAN_ANOMALY   = 313.7280

EPHEMERIS_TYPE = 0
CLASSIFICATION_TYPE = U
NORAD_CAT_ID   = 20580
ELEMENT_SET_NO = 999
REV_AT_EPOCH   = 75716
BSTAR          = .28128E-3
MEAN_MOTION_DOT = .8056E-4
MEAN_MOTION_DDOT = 0

CCSDS_OMM_VERS = 2.0
CREATION_DATE  = 
ORIGINATOR     = 

OBJECT_NAME    = SL-16 R/B
OBJECT_ID      = 1990-046B
CENTER_NAME    = EARTH
REF_FRAME      = TEME
TIME_SYSTEM    = UTC
MEAN_ELEMENT_THEORY = SGP/SGP4

EPOCH          = 2025-11-23T22:36:01.287648
MEAN_MOTION    = 14.14990911
ECCENTRICITY   = .0012237
INCLINATION    = 70.9960
RA_OF_ASC_NODE = 159.9989
ARG_OF_PERICENTER = 108.2860
MEAN_ANOMALY   = 251.9596

EPHEMERIS_TYPE = 0
CLASSIFICATION_TYPE = U
NORAD_CAT_ID   = 20625
ELEMENT_SET_NO = 999
REV_AT_EPOCH   = 83343
BSTAR          = .10743E-3
MEAN_MOTION_DOT = .16E-5
MEAN_MOTION_DDOT = 0

CCSDS_OMM_VERS = 2.0
CREATION_DATE  = 
ORIGINATOR     = 

OBJECT_NAME    = COSMOS 2084
OBJECT_ID      = 1990-055A
CENTER_NAME    = EARTH
REF_FRAME      = TEME
TIME_SYSTEM    = UTC
MEAN_ELEMENT_THEORY = SGP/SGP4

EPOCH          = 2025-11-24T08:40:54.840576
MEAN_MOTION    = 15.04852501
ECCENTRICITY   = .0034601
INCLINATION    = 62.7911
RA_OF_ASC_NODE = 334.6059
ARG_OF_PERICENTER = 172.4284
MEAN_ANOMALY   = 187.7347

EPHEMERIS_TYPE = 0
CLASSIFICATION_TYPE = U
NORAD_CAT_ID   = 20663
ELEMENT_SET_NO = 999
REV_AT_EPOCH   = 92046
BSTAR          = .21086E-3
MEAN_MOTION_DOT = .2828E-4
MEAN_MOTION_DDOT = 0

CCSDS_OMM_VERS = 2.0
CREATION_DATE  = 
ORIGINATOR     = 

OBJECT_NAME    = SL-6 R/B(2)
OBJECT_ID      = 1990-055D
CENTER_NAME    = EARTH
REF_FRAME      = TEME
TIME_SYSTEM    = UTC
MEAN_ELEMENT_THEORY = SGP/SGP4

EPOCH          = 2025-11-24T04:55:26.179104
MEAN_MOTION    = 15.02950380
ECCENTRICITY   = .0011214
INCLINATION    = 62.7833
RA_OF_ASC_NODE = 252.3858
ARG_OF_PERICENTER = 294.0393
MEAN_ANOMALY   = 65.9532

EPHEMERIS_TYPE = 0
CLASSIFICATION_TYPE = U
NORAD_CAT_ID   = 20666
ELEMENT_SET_NO = 999
REV_AT_EPOCH   = 92233
BSTAR          = .22235E-3
MEAN_MOTION_DOT = .281E-4
MEAN_MOTION_DDOT = 0

CCSDS_OMM_VERS = 2.0
CREATION_DATE  = 
ORIGINATOR     = 

OBJECT_NAME    = SL-8 R/B
OBJECT_ID      = 1990-078B
CENTER_NAME    = EARTH
REF_FRAME      = TEME
TIME_SYSTEM    = UTC
MEAN_ELEMENT_THEORY = SGP/SGP4

EPOCH          = 2025-11-24T11:25:07.075776
MEAN_MOTION    = 14.84828246
ECCENTRICITY   = .0377855
INCLINATION    = 82.9052
RA_OF_ASC_NODE = 345.6440
ARG_OF_PERICENTER = 7.1727
MEAN_ANOMALY   = 353.4679

EPHEMERIS_TYPE = 0
CLASSIFICATION_TYPE = U
NORAD_CAT_ID   = 20775
ELEMENT_SET_NO = 999
REV_AT_EPOCH   = 79366
BSTAR          = .76873E-3
MEAN_MOTION_DOT = .24843E-3
MEAN_MOTION_DDOT = 0

CCSDS_OMM_VERS = 2.0
CREATION_DATE  = 
ORIGINATOR     = 

OBJECT_NAME    = SL-8 R/B
OBJECT_ID      = 1991-006B
CENTER_NAME    = EARTH
REF_FRAME      = TEME
TIME_SYSTEM    = UTC
MEAN_ELEMENT_THEORY = SGP/SGP4

EPOCH          = 2025-11-24T07:29:15.434880
MEAN_MOTION    = 13.77486780
ECCENTRICITY   = .0022003
INCLINATION    = 82.9428
RA_OF_ASC_NODE = 248.4188
ARG_OF_PERICENTER = 334.1272
MEAN_ANOMALY   = 141.2759

EPHEMERIS_TYPE = 0
CLASSIFICATION_TYPE = U
NORAD_CAT_ID   = 21088
ELEMENT_SET_NO = 999
REV_AT_EPOCH   = 74956
BSTAR          = .10347E-3
MEAN_MOTION_DOT = .118E-5
MEAN_MOTION_DDOT = 0

CCSDS_OMM_VERS = 2.0
CREATION_DATE  = 
ORIGINATOR     = 

OBJECT_NAME    = OKEAN-3
OBJECT_ID      = 1991-039A
CENTER_NAME    = EARTH
REF_FRAME      = TEME
TIME_SYSTEM    = UTC
MEAN_ELEMENT_THEORY = SGP/SGP4

EPOCH          = 2025-11-24T09:16:26.433120
MEAN_MOTION    = 15.03935924
ECCENTRICITY   = .0013985
INCLINATION    = 82.5172
RA_OF_ASC_NODE = 78.8073
ARG_OF_PERICENTER = 333.9150
MEAN_ANOMALY   = 26.1370

EPHEMERIS_TYPE = 0
CLASSIFICATION_TYPE = U
NORAD_CAT_ID   = 21397
ELEMENT_SET_NO = 999
REV_AT_EPOCH   = 84920
BSTAR          = .31464E-3
MEAN_MOTION_DOT = .4374E-4
MEAN_MOTION_DDOT = 0

